LANDSAT 9               
1 49260U 21088A   24148.43258535  .00000691  00000+0  16325-3 0  9999
2 49260  98.1876 218.4023 0001005  90.3658 269.7656 14.57130549141667
